GHGSAT-C1               
1 46278U 20061G   26199.85261603  .00028305  00000+0  20300-3 0  9999
2 46278  97.2089 286.0700 0001337 172.9534 187.1749 15.73647199328453
GHGSAT-C2               
1 47509U 21006DA  26199.50986713  .00003246  00000+0  88575-4 0  9991
2 47509  97.2126 246.2415 0006568  66.9232 293.2706 15.38130770304664
GHGSAT-C3               
1 52737U 22057F   26199.86495506  .00003352  00000+0  10219-3 0  9998
2 52737  97.6641 346.7233 0005982  23.4396 336.7118 15.34705239230393
GHGSAT-C5               
1 52744U 22057N   26199.83915297  .00003357  00000+0  10239-3 0  9994
2 52744  97.6727 348.3068 0006685  20.4486 339.7023 15.34681393230390
GHGSAT-C4               
1 52746U 22057Q   26199.88571081  .00003478  00000+0  10596-3 0  9990
2 52746  97.6567 345.5440 0005794   6.4263 353.7053 15.34692547230408
GHGSAT-C8               
1 56186U 23054J   26199.85355824  .00009350  00000+0  14701-3 0  9999
2 56186  97.2950 109.6323 0002402 346.9024  13.2167 15.53841518183351
GHGSAT-C6               
1 56204U 23054AC  26199.81983412  .00009395  00000+0  14784-3 0  9996
2 56204  97.3011 110.3042 0003200 285.3890  74.7010 15.53815393183364
GHGSAT-C7               
1 56209U 23054AH  26199.76167428  .00006295  00000+0  11206-3 0  9998
2 56209  97.2962 108.5421 0004822 286.0097  74.0623 15.50491209183288
GHGSAT-C12              
1 64529U 25135B   26199.83942211  .00001722  00000+0  82071-4 0  9992
2 64529  97.4774 314.3735 0006303  71.4596 288.7324 15.20458370 59638
GHGSAT-C13              
1 64548U 25135W   26199.82485227  .00002924  00000+0  13336-3 0  9993
2 64548  97.4805 314.9812 0001713  64.9276 295.2137 15.21425280 59661
