{"fetched_at":"2026-07-19T07:05:09.768Z","source":"https://celestrak.org/NORAD/elements/gp.php?NAME=GHGSAT&FORMAT=JSON","constellation":"ghgsat","records":[{"OBJECT_NAME":"GHGSAT-C1","OBJECT_ID":"2020-061G","EPOCH":"2026-07-18T20:27:46.024992","CLASSIFICATION_TYPE":"U","MEAN_MOTION":15.73647199,"ECCENTRICITY":0.0001337,"INCLINATION":97.2089,"RA_OF_ASC_NODE":286.07,"ARG_OF_PERICENTER":172.9534,"MEAN_ANOMALY":187.1749,"EPHEMERIS_TYPE":0,"NORAD_CAT_ID":46278,"ELEMENT_SET_NO":999,"REV_AT_EPOCH":32845,"BSTAR":0.000203,"MEAN_MOTION_DOT":0.00028305,"MEAN_MOTION_DDOT":0},{"OBJECT_NAME":"GHGSAT-C2","OBJECT_ID":"2021-006DA","EPOCH":"2026-07-18T12:14:12.520032","CLASSIFICATION_TYPE":"U","MEAN_MOTION":15.3813077,"ECCENTRICITY":0.0006568,"INCLINATION":97.2126,"RA_OF_ASC_NODE":246.2415,"ARG_OF_PERICENTER":66.9232,"MEAN_ANOMALY":293.2706,"EPHEMERIS_TYPE":0,"NORAD_CAT_ID":47509,"ELEMENT_SET_NO":999,"REV_AT_EPOCH":30466,"BSTAR":0.000088575,"MEAN_MOTION_DOT":0.00003246,"MEAN_MOTION_DDOT":0},{"OBJECT_NAME":"GHGSAT-C3","OBJECT_ID":"2022-057F","EPOCH":"2026-07-18T20:45:32.117184","CLASSIFICATION_TYPE":"U","MEAN_MOTION":15.34705239,"ECCENTRICITY":0.0005982,"INCLINATION":97.6641,"RA_OF_ASC_NODE":346.7233,"ARG_OF_PERICENTER":23.4396,"MEAN_ANOMALY":336.7118,"EPHEMERIS_TYPE":0,"NORAD_CAT_ID":52737,"ELEMENT_SET_NO":999,"REV_AT_EPOCH":23039,"BSTAR":0.00010219,"MEAN_MOTION_DOT":0.00003352,"MEAN_MOTION_DDOT":0},{"OBJECT_NAME":"GHGSAT-C5","OBJECT_ID":"2022-057N","EPOCH":"2026-07-18T20:08:22.816608","CLASSIFICATION_TYPE":"U","MEAN_MOTION":15.34681393,"ECCENTRICITY":0.0006685,"INCLINATION":97.6727,"RA_OF_ASC_NODE":348.3068,"ARG_OF_PERICENTER":20.4486,"MEAN_ANOMALY":339.7023,"EPHEMERIS_TYPE":0,"NORAD_CAT_ID":52744,"ELEMENT_SET_NO":999,"REV_AT_EPOCH":23039,"BSTAR":0.00010239,"MEAN_MOTION_DOT":0.00003357,"MEAN_MOTION_DDOT":0},{"OBJECT_NAME":"GHGSAT-C4","OBJECT_ID":"2022-057Q","EPOCH":"2026-07-18T21:15:25.413984","CLASSIFICATION_TYPE":"U","MEAN_MOTION":15.34692547,"ECCENTRICITY":0.0005794,"INCLINATION":97.6567,"RA_OF_ASC_NODE":345.544,"ARG_OF_PERICENTER":6.4263,"MEAN_ANOMALY":353.7053,"EPHEMERIS_TYPE":0,"NORAD_CAT_ID":52746,"ELEMENT_SET_NO":999,"REV_AT_EPOCH":23040,"BSTAR":0.00010596,"MEAN_MOTION_DOT":0.00003478,"MEAN_MOTION_DDOT":0},{"OBJECT_NAME":"GHGSAT-C8","OBJECT_ID":"2023-054J","EPOCH":"2026-07-18T20:29:07.431936","CLASSIFICATION_TYPE":"U","MEAN_MOTION":15.53841518,"ECCENTRICITY":0.0002402,"INCLINATION":97.295,"RA_OF_ASC_NODE":109.6323,"ARG_OF_PERICENTER":346.9024,"MEAN_ANOMALY":13.2167,"EPHEMERIS_TYPE":0,"NORAD_CAT_ID":56186,"ELEMENT_SET_NO":999,"REV_AT_EPOCH":18335,"BSTAR":0.00014701,"MEAN_MOTION_DOT":0.0000935,"MEAN_MOTION_DDOT":0},{"OBJECT_NAME":"GHGSAT-C6","OBJECT_ID":"2023-054AC","EPOCH":"2026-07-18T19:40:33.667968","CLASSIFICATION_TYPE":"U","MEAN_MOTION":15.53815393,"ECCENTRICITY":0.00032,"INCLINATION":97.3011,"RA_OF_ASC_NODE":110.3042,"ARG_OF_PERICENTER":285.389,"MEAN_ANOMALY":74.701,"EPHEMERIS_TYPE":0,"NORAD_CAT_ID":56204,"ELEMENT_SET_NO":999,"REV_AT_EPOCH":18336,"BSTAR":0.00014784,"MEAN_MOTION_DOT":0.00009395,"MEAN_MOTION_DDOT":0},{"OBJECT_NAME":"GHGSAT-C7","OBJECT_ID":"2023-054AH","EPOCH":"2026-07-18T18:16:48.657792","CLASSIFICATION_TYPE":"U","MEAN_MOTION":15.50491209,"ECCENTRICITY":0.0004822,"INCLINATION":97.2962,"RA_OF_ASC_NODE":108.5421,"ARG_OF_PERICENTER":286.0097,"MEAN_ANOMALY":74.0623,"EPHEMERIS_TYPE":0,"NORAD_CAT_ID":56209,"ELEMENT_SET_NO":999,"REV_AT_EPOCH":18328,"BSTAR":0.00011206,"MEAN_MOTION_DOT":0.00006295,"MEAN_MOTION_DDOT":0},{"OBJECT_NAME":"GHGSAT-C12","OBJECT_ID":"2025-135B","EPOCH":"2026-07-18T20:08:46.070304","CLASSIFICATION_TYPE":"U","MEAN_MOTION":15.2045837,"ECCENTRICITY":0.0006303,"INCLINATION":97.4774,"RA_OF_ASC_NODE":314.3735,"ARG_OF_PERICENTER":71.4596,"MEAN_ANOMALY":288.7324,"EPHEMERIS_TYPE":0,"NORAD_CAT_ID":64529,"ELEMENT_SET_NO":999,"REV_AT_EPOCH":5963,"BSTAR":0.000082071,"MEAN_MOTION_DOT":0.00001722,"MEAN_MOTION_DDOT":0},{"OBJECT_NAME":"GHGSAT-C13","OBJECT_ID":"2025-135W","EPOCH":"2026-07-18T19:47:47.236128","CLASSIFICATION_TYPE":"U","MEAN_MOTION":15.2142528,"ECCENTRICITY":0.0001713,"INCLINATION":97.4805,"RA_OF_ASC_NODE":314.9812,"ARG_OF_PERICENTER":64.9276,"MEAN_ANOMALY":295.2137,"EPHEMERIS_TYPE":0,"NORAD_CAT_ID":64548,"ELEMENT_SET_NO":999,"REV_AT_EPOCH":5966,"BSTAR":0.00013336,"MEAN_MOTION_DOT":0.00002924,"MEAN_MOTION_DDOT":0}]}
